CCSDS_OMM_VERS = 2.0
CREATION_DATE  = 
ORIGINATOR     = 

OBJECT_NAME    = COSMOS 1892
OBJECT_ID      = 1987-088A
CENTER_NAME    = EARTH
REF_FRAME      = TEME
TIME_SYSTEM    = UTC
MEAN_ELEMENT_THEORY = SGP/SGP4

EPOCH          = 2025-11-19T22:42:44.304768
MEAN_MOTION    = 16.06193999
ECCENTRICITY   = .00059619
INCLINATION    = 82.4667
RA_OF_ASC_NODE = 69.4520
ARG_OF_PERICENTER = 272.0257
MEAN_ANOMALY   = 88.0341

EPHEMERIS_TYPE = 0
CLASSIFICATION_TYPE = U
NORAD_CAT_ID   = 18421
ELEMENT_SET_NO = 999
REV_AT_EPOCH   = 8766
BSTAR          = .70333245E-3
MEAN_MOTION_DOT = .513941E-2
MEAN_MOTION_DDOT = .12509644E-3

CCSDS_OMM_VERS = 2.0
CREATION_DATE  = 
ORIGINATOR     = 

OBJECT_NAME    = SL-14 R/B
OBJECT_ID      = 1988-001B
CENTER_NAME    = EARTH
REF_FRAME      = TEME
TIME_SYSTEM    = UTC
MEAN_ELEMENT_THEORY = SGP/SGP4

EPOCH          = 2025-11-19T22:37:04.021824
MEAN_MOTION    = 14.85388563
ECCENTRICITY   = .00166391
INCLINATION    = 82.5108
RA_OF_ASC_NODE = 298.5927
ARG_OF_PERICENTER = 238.7764
MEAN_ANOMALY   = 121.1822

EPHEMERIS_TYPE = 0
CLASSIFICATION_TYPE = U
NORAD_CAT_ID   = 18749
ELEMENT_SET_NO = 999
REV_AT_EPOCH   = 2573
BSTAR          = .69089447E-4
MEAN_MOTION_DOT = .62E-5
MEAN_MOTION_DDOT = 0

CCSDS_OMM_VERS = 2.0
CREATION_DATE  = 
ORIGINATOR     = 

OBJECT_NAME    = COSMOS 1933
OBJECT_ID      = 1988-020A
CENTER_NAME    = EARTH
REF_FRAME      = TEME
TIME_SYSTEM    = UTC
MEAN_ELEMENT_THEORY = SGP/SGP4

EPOCH          = 2025-11-19T12:48:56.000736
MEAN_MOTION    = 15.16853231
ECCENTRICITY   = .0003545
INCLINATION    = 82.5141
RA_OF_ASC_NODE = 359.8039
ARG_OF_PERICENTER = 199.3114
MEAN_ANOMALY   = 160.7986

EPHEMERIS_TYPE = 0
CLASSIFICATION_TYPE = U
NORAD_CAT_ID   = 18958
ELEMENT_SET_NO = 999
REV_AT_EPOCH   = 3352
BSTAR          = .19265457E-3
MEAN_MOTION_DOT = .3819E-4
MEAN_MOTION_DDOT = 0

CCSDS_OMM_VERS = 2.0
CREATION_DATE  = 
ORIGINATOR     = 

OBJECT_NAME    = SL-3 R/B
OBJECT_ID      = 1988-032B
CENTER_NAME    = EARTH
REF_FRAME      = TEME
TIME_SYSTEM    = UTC
MEAN_ELEMENT_THEORY = SGP/SGP4

EPOCH          = 2025-11-19T22:20:03.200640
MEAN_MOTION    = 15.18416859
ECCENTRICITY   = .0024855
INCLINATION    = 97.5055
RA_OF_ASC_NODE = 302.8175
ARG_OF_PERICENTER = 255.7125
MEAN_ANOMALY   = 104.1349

EPHEMERIS_TYPE = 0
CLASSIFICATION_TYPE = U
NORAD_CAT_ID   = 19046
ELEMENT_SET_NO = 999
REV_AT_EPOCH   = 3544
BSTAR          = .24500334E-3
MEAN_MOTION_DOT = .5011E-4
MEAN_MOTION_DDOT = 0

CCSDS_OMM_VERS = 2.0
CREATION_DATE  = 
ORIGINATOR     = 

OBJECT_NAME    = SL-16 R/B
OBJECT_ID      = 1988-039B
CENTER_NAME    = EARTH
REF_FRAME      = TEME
TIME_SYSTEM    = UTC
MEAN_ELEMENT_THEORY = SGP/SGP4

EPOCH          = 2025-11-19T22:00:01.576224
MEAN_MOTION    = 14.19590697
ECCENTRICITY   = .00207041
INCLINATION    = 71.0141
RA_OF_ASC_NODE = 300.6557
ARG_OF_PERICENTER = 154.1923
MEAN_ANOMALY   = 206.0240

EPHEMERIS_TYPE = 0
CLASSIFICATION_TYPE = U
NORAD_CAT_ID   = 19120
ELEMENT_SET_NO = 999
REV_AT_EPOCH   = 94280
BSTAR          = .68887083E-4
MEAN_MOTION_DOT = .98E-6
MEAN_MOTION_DDOT = 0

CCSDS_OMM_VERS = 2.0
CREATION_DATE  = 
ORIGINATOR     = 

OBJECT_NAME    = COSMOS 1953
OBJECT_ID      = 1988-050A
CENTER_NAME    = EARTH
REF_FRAME      = TEME
TIME_SYSTEM    = UTC
MEAN_ELEMENT_THEORY = SGP/SGP4

EPOCH          = 2025-11-19T13:38:22.475616
MEAN_MOTION    = 15.26563211
ECCENTRICITY   = .0012939
INCLINATION    = 82.5081
RA_OF_ASC_NODE = 268.8239
ARG_OF_PERICENTER = 142.7017
MEAN_ANOMALY   = 217.5123

EPHEMERIS_TYPE = 0
CLASSIFICATION_TYPE = U
NORAD_CAT_ID   = 19210
ELEMENT_SET_NO = 999
REV_AT_EPOCH   = 2097
BSTAR          = .1953E-3
MEAN_MOTION_DOT = .5151E-4
MEAN_MOTION_DDOT = 0

CCSDS_OMM_VERS = 2.0
CREATION_DATE  = 
ORIGINATOR     = 

OBJECT_NAME    = SL-8 R/B
OBJECT_ID      = 1988-053B
CENTER_NAME    = EARTH
REF_FRAME      = TEME
TIME_SYSTEM    = UTC
MEAN_ELEMENT_THEORY = SGP/SGP4

EPOCH          = 2025-11-19T22:27:13.133088
MEAN_MOTION    = 14.38840360
ECCENTRICITY   = .00197292
INCLINATION    = 74.0466
RA_OF_ASC_NODE = 314.7498
ARG_OF_PERICENTER = 166.4547
MEAN_ANOMALY   = 213.2191

EPHEMERIS_TYPE = 0
CLASSIFICATION_TYPE = U
NORAD_CAT_ID   = 19257
ELEMENT_SET_NO = 999
REV_AT_EPOCH   = 96081
BSTAR          = .95921113E-4
MEAN_MOTION_DOT = .269E-5
MEAN_MOTION_DDOT = 0

CCSDS_OMM_VERS = 2.0
CREATION_DATE  = 
ORIGINATOR     = 

OBJECT_NAME    = COSMOS 1975
OBJECT_ID      = 1988-093A
CENTER_NAME    = EARTH
REF_FRAME      = TEME
TIME_SYSTEM    = UTC
MEAN_ELEMENT_THEORY = SGP/SGP4

EPOCH          = 2025-11-19T16:51:38.223936
MEAN_MOTION    = 15.25979596
ECCENTRICITY   = .00107283
INCLINATION    = 82.5221
RA_OF_ASC_NODE = 227.8785
ARG_OF_PERICENTER = 188.3792
MEAN_ANOMALY   = 171.7269

EPHEMERIS_TYPE = 0
CLASSIFICATION_TYPE = U
NORAD_CAT_ID   = 19573
ELEMENT_SET_NO = 999
REV_AT_EPOCH   = 262
BSTAR          = .32109238E-3
MEAN_MOTION_DOT = .8295E-4
MEAN_MOTION_DDOT = 0

CCSDS_OMM_VERS = 2.0
CREATION_DATE  = 
ORIGINATOR     = 

OBJECT_NAME    = SL-14 R/B
OBJECT_ID      = 1988-093B
CENTER_NAME    = EARTH
REF_FRAME      = TEME
TIME_SYSTEM    = UTC
MEAN_ELEMENT_THEORY = SGP/SGP4

EPOCH          = 2025-11-19T22:59:25.297152
MEAN_MOTION    = 14.85514949
ECCENTRICITY   = .0021824
INCLINATION    = 82.5292
RA_OF_ASC_NODE = 145.0471
ARG_OF_PERICENTER = 44.3047
MEAN_ANOMALY   = 108.0281

EPHEMERIS_TYPE = 0
CLASSIFICATION_TYPE = U
NORAD_CAT_ID   = 19574
ELEMENT_SET_NO = 999
REV_AT_EPOCH   = 98474
BSTAR          = .58885225E-4
MEAN_MOTION_DOT = .535E-5
MEAN_MOTION_DDOT = 0

CCSDS_OMM_VERS = 2.0
CREATION_DATE  = 
ORIGINATOR     = 

OBJECT_NAME    = SL-16 R/B
OBJECT_ID      = 1988-102B
CENTER_NAME    = EARTH
REF_FRAME      = TEME
TIME_SYSTEM    = UTC
MEAN_ELEMENT_THEORY = SGP/SGP4

EPOCH          = 2025-11-19T22:12:53.300160
MEAN_MOTION    = 14.16131877
ECCENTRICITY   = .0014368
INCLINATION    = 71.0010
RA_OF_ASC_NODE = 22.4464
ARG_OF_PERICENTER = 187.1349
MEAN_ANOMALY   = 172.9572

EPHEMERIS_TYPE = 0
CLASSIFICATION_TYPE = U
NORAD_CAT_ID   = 19650
ELEMENT_SET_NO = 999
REV_AT_EPOCH   = 91135
BSTAR          = .14637375E-3
MEAN_MOTION_DOT = .242E-5
MEAN_MOTION_DDOT = 0

CCSDS_OMM_VERS = 2.0
CREATION_DATE  = 
ORIGINATOR     = 

OBJECT_NAME    = INTERCOSMOS 24
OBJECT_ID      = 1989-080A
CENTER_NAME    = EARTH
REF_FRAME      = TEME
TIME_SYSTEM    = UTC
MEAN_ELEMENT_THEORY = SGP/SGP4

EPOCH          = 2025-11-19T20:41:16.673856
MEAN_MOTION    = 12.59385246
ECCENTRICITY   = .11883381
INCLINATION    = 82.6058
RA_OF_ASC_NODE = 175.8287
ARG_OF_PERICENTER = 187.5837
MEAN_ANOMALY   = 170.5781

EPHEMERIS_TYPE = 0
CLASSIFICATION_TYPE = U
NORAD_CAT_ID   = 20261
ELEMENT_SET_NO = 999
REV_AT_EPOCH   = 65297
BSTAR          = .22124478E-3
MEAN_MOTION_DOT = .762E-5
MEAN_MOTION_DDOT = 0

CCSDS_OMM_VERS = 2.0
CREATION_DATE  = 
ORIGINATOR     = 

OBJECT_NAME    = SL-14 R/B
OBJECT_ID      = 1989-080C
CENTER_NAME    = EARTH
REF_FRAME      = TEME
TIME_SYSTEM    = UTC
MEAN_ELEMENT_THEORY = SGP/SGP4

EPOCH          = 2025-11-19T18:45:49.943520
MEAN_MOTION    = 12.50387472
ECCENTRICITY   = .12311108
INCLINATION    = 82.5938
RA_OF_ASC_NODE = 243.7531
ARG_OF_PERICENTER = 76.0407
MEAN_ANOMALY   = 297.4238

EPHEMERIS_TYPE = 0
CLASSIFICATION_TYPE = U
NORAD_CAT_ID   = 20262
ELEMENT_SET_NO = 999
REV_AT_EPOCH   = 64641
BSTAR          = .11467815E-3
MEAN_MOTION_DOT = .411E-5
MEAN_MOTION_DDOT = 0

