COSMOS 1892             
1 18421U 87088A   25323.94634612  .00513941  12510-3  70333-3 0  9991
2 18421  82.4667  69.4520 0005961 272.0257  88.0341 16.06193999 87667
SL-14 R/B               
1 18749U 88001B   25323.94240766  .00000620  00000+0  69089-4 0  9992
2 18749  82.5108 298.5927 0016639 238.7764 121.1822 14.85388563 25734
COSMOS 1933             
1 18958U 88020A   25323.53398149  .00003819  00000+0  19265-3 0  9992
2 18958  82.5141 359.8039 0003545 199.3114 160.7986 15.16853231 33521
SL-3 R/B                
1 19046U 88032B   25323.93059260  .00005011  00000+0  24500-3 0  9990
2 19046  97.5055 302.8175 0024855 255.7125 104.1349 15.18416859 35446
SL-16 R/B               
1 19120U 88039B   25323.91668491  .00000098  00000+0  68887-4 0  9997
2 19120  71.0141 300.6557 0020704 154.1923 206.0240 14.19590697942801
COSMOS 1953             
1 19210U 88050A   25323.56831569  .00005151  00000+0  19530-3 0  9994
2 19210  82.5081 268.8239 0012939 142.7017 217.5123 15.26563211 20974
SL-8 R/B                
1 19257U 88053B   25323.93556867  .00000269  00000+0  95921-4 0  9998
2 19257  74.0466 314.7498 0019729 166.4547 213.2191 14.38840360960810
COSMOS 1975             
1 19573U 88093A   25323.70252574  .00008295  00000+0  32109-3 0  9991
2 19573  82.5221 227.8785 0010728 188.3792 171.7269 15.25979596  2623
SL-14 R/B               
1 19574U 88093B   25323.95793168  .00000535  00000+0  58885-4 0  9997
2 19574  82.5292 145.0471 0021824  44.3047 108.0281 14.85514949984749
SL-16 R/B               
1 19650U 88102B   25323.92561690  .00000242  00000+0  14637-3 0  9994
2 19650  71.0010  22.4464 0014368 187.1349 172.9572 14.16131877911350
INTERCOSMOS 24          
1 20261U 89080A   25323.86199854  .00000762  00000+0  22124-3 0  9999
2 20261  82.6058 175.8287 1188338 187.5837 170.5781 12.59385246652974
SL-14 R/B               
1 20262U 89080C   25323.78182805  .00000411  00000+0  11468-3 0  9999
2 20262  82.5938 243.7531 1231110  76.0407 297.4238 12.50387472646412
